{"fetched_at":"2026-03-29T16:36:15Z","count":15609,"tles":[{"name":"STARLINK-36497","line1":"1 67323U 26002U   26087.74906530  .00021351  00000+0  78262-3 0  9997","line2":"2 67323  43.0025 217.6359 0001572 258.3205 101.7471 15.27602680 14058","category":"Starlink"}]}