{
  "norad_id": 67323,
  "name": "STARLINK-36497",
  "history": [
    {
      "epoch": "2026-03-28T17:58:39.241920",
      "apogee_km": 484.06030146890316,
      "perigee_km": 481.90206813269197,
      "latitude_deg": 20.253663312214112,
      "longitude_deg": -95.78973119985312,
      "semi_major_axis_km": 6861.118184800797,
      "eccentricity": 0.00015728,
      "inclination_deg": 43.0025,
      "raan_deg": 217.6359,
      "arg_perigee_deg": 258.3205,
      "mean_anomaly_deg": 101.7471,
      "mean_motion_rev_day": 15.2760268
    }
  ]
}